start=new Date('2022-02-06T00:00:00.000Z').valueOf();
sats=[{"ARG_OF_PERICENTER":"77.3766","SEMIMAJOR_AXIS":"6925.363","APOAPSIS":"548.429","OBJECT_NAME":"STARLINK-2594","ECCENTRICITY":"0.00017350","TLE_LINE2":"2 48388  53.0540 208.5029 0001735  77.3766 282.7417 15.06395394 42819","EPHEMERIS_TYPE":"0","PERIOD":"95.592","SITE":"AFETR","CENTER_NAME":"EARTH","TIME_SYSTEM":"UTC","MEAN_ANOMALY":"282.7417","RA_OF_ASC_NODE":"208.5029","MEAN_MOTION_DDOT":"0.0000000000000","REF_FRAME":"TEME","COUNTRY_CODE":"US","REV_AT_EPOCH":"4281","RCS_SIZE":"LARGE","TLE_LINE1":"1 48388U 21038AM  22036.78895425  .00000122  00000-0  27080-4 0  9992","EPOCH":"2022-02-05T18:56:05.647200","GP_ID":"195375450","BSTAR":"0.00002708000000","MEAN_ELEMENT_THEORY":"SGP4","CLASSIFICATION_TYPE":"U","FILE":"3292855","INCLINATION":"53.0540","NORAD_CAT_ID":"48388","MEAN_MOTION_DOT":"0.00000122","LAUNCH_DATE":"2021-05-04","DECAY_DATE":null,"OBJECT_TYPE":"PAYLOAD","OBJECT_ID":"2021-038AM","MEAN_MOTION":"15.06395394","PERIAPSIS":"546.026","ELEMENT_SET_NO":"999"},{"OBJECT_TYPE":"PAYLOAD","OBJECT_ID":"2021-038AN","DECAY_DATE":null,"PERIAPSIS":"545.849","MEAN_MOTION":"15.06401118","ELEMENT_SET_NO":"999","GP_ID":"195375880","EPOCH":"2022-02-05T18:38:10.044096","CLASSIFICATION_TYPE":"U","MEAN_ELEMENT_THEORY":"SGP4","BSTAR":"0.00003464500000","NORAD_CAT_ID":"48389","FILE":"3292856","INCLINATION":"53.0543","LAUNCH_DATE":"2021-05-04","MEAN_MOTION_DOT":"0.00000234","TIME_SYSTEM":"UTC","MEAN_MOTION_DDOT":"0.0000000000000","REF_FRAME":"TEME","RA_OF_ASC_NODE":"203.5588","MEAN_ANOMALY":"282.6250","REV_AT_EPOCH":"4287","COUNTRY_CODE":"US","TLE_LINE1":"1 48389U 21038AN  22036.77650514  .00000234  00000-0  34645-4 0  9999","RCS_SIZE":"LARGE","APOAPSIS":"548.572","ARG_OF_PERICENTER":"77.4958","SEMIMAJOR_AXIS":"6925.345","OBJECT_NAME":"STARLINK-1904","TLE_LINE2":"2 48389  53.0543 203.5588 0001966  77.4958 282.6250 15.06401118 42870","ECCENTRICITY":"0.00019660","CENTER_NAME":"EARTH","SITE":"AFETR","PERIOD":"95.592","EPHEMERIS_TYPE":"0"},{"MEAN_MOTION_DDOT":"0.0000000000000","REF_FRAME":"TEME","MEAN_ANOMALY":"285.4262","RA_OF_ASC_NODE":"203.5866","TIME_SYSTEM":"UTC","TLE_LINE1":"1 48390U 21038AP  22036.77281726  .00001189  00000-0  98701-4 0  9999","RCS_SIZE":"LARGE","REV_AT_EPOCH":"4287","COUNTRY_CODE":"US","OBJECT_NAME":"STARLINK-2586","SEMIMAJOR_AXIS":"6925.333","ARG_OF_PERICENTER":"74.6926","APOAPSIS":"548.448","CENTER_NAME":"EARTH","SITE":"AFETR","EPHEMERIS_TYPE":"0","PERIOD":"95.592","ECCENTRICITY":"0.00018060","TLE_LINE2":"2 48390  53.0547 203.5866 0001806  74.6926 285.4262 15.06405163 42870","DECAY_DATE":null,"OBJECT_ID":"2021-038AP","OBJECT_TYPE":"PAYLOAD","ELEMENT_SET_NO":"999","PERIAPSIS":"545.947","MEAN_MOTION":"15.06405163","CLASSIFICATION_TYPE":"U","BSTAR":"0.00009870100000","MEAN_ELEMENT_THEORY":"SGP4","EPOCH":"2022-02-05T18:32:51.411264","GP_ID":"195375471","LAUNCH_DATE":"2021-05-04","MEAN_MOTION_DOT":"0.00001189","NORAD_CAT_ID":"48390","FILE":"3292857","INCLINATION":"53.0547"},{"EPOCH":"2022-02-05T04:07:42.038112","GP_ID":"195367433","BSTAR":"0.00013996000000","MEAN_ELEMENT_THEORY":"SGP4","CLASSIFICATION_TYPE":"U","FILE":"3292709","INCLINATION":"53.0548","NORAD_CAT_ID":"48391","MEAN_MOTION_DOT":"0.00001804","LAUNCH_DATE":"2021-05-04","DECAY_DATE":null,"OBJECT_ID":"2021-038AQ","OBJECT_TYPE":"PAYLOAD","MEAN_MOTION":"15.06402790","PERIAPSIS":"545.916","ELEMENT_SET_NO":"999","SEMIMAJOR_AXIS":"6925.340","ARG_OF_PERICENTER":"71.3823","APOAPSIS":"548.494","OBJECT_NAME":"STARLINK-2607","ECCENTRICITY":"0.00018610","TLE_LINE2":"2 48391  53.0548 206.2801 0001861  71.3823 288.7368 15.06402790 43419","PERIOD":"95.592","EPHEMERIS_TYPE":"0","CENTER_NAME":"EARTH","SITE":"AFETR","TIME_SYSTEM":"UTC","MEAN_ANOMALY":"288.7368","RA_OF_ASC_NODE":"206.2801","MEAN_MOTION_DDOT":"0.0000000000000","REF_FRAME":"TEME","COUNTRY_CODE":"US","REV_AT_EPOCH":"4341","RCS_SIZE":"LARGE","TLE_LINE1":"1 48391U 21038AQ  22036.17201433  .00001804  00000-0  13996-3 0  9997"},{"TLE_LINE1":"1 48392U 21038AR  22036.50006209  .00000877  00000-0  77772-4 0  9991","RCS_SIZE":"LARGE","REV_AT_EPOCH":"4346","COUNTRY_CODE":"US","REF_FRAME":"TEME","MEAN_MOTION_DDOT":"0.0000000000000","MEAN_ANOMALY":"279.4884","RA_OF_ASC_NODE":"204.8065","TIME_SYSTEM":"UTC","CENTER_NAME":"EARTH","SITE":"AFETR","EPHEMERIS_TYPE":"0","PERIOD":"95.592","ECCENTRICITY":"0.00018420","TLE_LINE2":"2 48392  53.0549 204.8065 0001842  80.6313 279.4884 15.06399416 43468","OBJECT_NAME":"STARLINK-2605","ARG_OF_PERICENTER":"80.6313","SEMIMAJOR_AXIS":"6925.350","APOAPSIS":"548.491","ELEMENT_SET_NO":"999","PERIAPSIS":"545.940","MEAN_MOTION":"15.06399416","DECAY_DATE":null,"OBJECT_ID":"2021-038AR","OBJECT_TYPE":"PAYLOAD","LAUNCH_DATE":"2021-05-04","MEAN_MOTION_DOT":"0.00000877","NORAD_CAT_ID":"48392","FILE":"3292709","INCLINATION":"53.0549","CLASSIFICATION_TYPE":"U","BSTAR":"0.00007777200000","MEAN_ELEMENT_THEORY":"SGP4","EPOCH":"2022-02-05T12:00:05.364576","GP_ID":"195367683"},{"TLE_LINE1":"1 48393U 21038AS  22036.76176354 -.00000130  00000-0  10187-4 0  9999","RCS_SIZE":"LARGE","REV_AT_EPOCH":"4287","COUNTRY_CODE":"US","REF_FRAME":"TEME","MEAN_MOTION_DDOT":"0.0000000000000","MEAN_ANOMALY":"285.8082","RA_OF_ASC_NODE":"203.6423","TIME_SYSTEM":"UTC","SITE":"AFETR","CENTER_NAME":"EARTH","EPHEMERIS_TYPE":"0","PERIOD":"95.592","ECCENTRICITY":"0.00016490","TLE_LINE2":"2 48393  53.0554 203.6423 0001649  74.3089 285.8082 15.06398557 42875","OBJECT_NAME":"STARLINK-2602","SEMIMAJOR_AXIS":"6925.353","ARG_OF_PERICENTER":"74.3089","APOAPSIS":"548.360","ELEMENT_SET_NO":"999","PERIAPSIS":"546.076","MEAN_MOTION":"15.06398557","DECAY_DATE":null,"OBJECT_ID":"2021-038AS","OBJECT_TYPE":"PAYLOAD","LAUNCH_DATE":"2021-05-04","MEAN_MOTION_DOT":"-0.00000130","NORAD_CAT_ID":"48393","FILE":"3292987","INCLINATION":"53.0554","CLASSIFICATION_TYPE":"U","BSTAR":"0.00001018700000","MEAN_ELEMENT_THEORY":"SGP4","EPOCH":"2022-02-05T18:16:56.369856","GP_ID":"195377904"},{"OBJECT_ID":"2021-038AT","OBJECT_TYPE":"PAYLOAD","DECAY_DATE":null,"MEAN_MOTION":"15.06398983","PERIAPSIS":"545.786","ELEMENT_SET_NO":"999","GP_ID":"195368680","EPOCH":"2022-02-05T11:49:28.462656","MEAN_ELEMENT_THEORY":"SGP4","BSTAR":"0.00016679000000","CLASSIFICATION_TYPE":"U","FILE":"3292709","INCLINATION":"53.0538","NORAD_CAT_ID":"48394","MEAN_MOTION_DOT":"0.00002203","LAUNCH_DATE":"2021-05-04","TIME_SYSTEM":"UTC","RA_OF_ASC_NODE":"204.8336","MEAN_ANOMALY":"281.4768","REF_FRAME":"TEME","MEAN_MOTION_DDOT":"0.0000000000000","COUNTRY_CODE":"US","REV_AT_EPOCH":"4346","RCS_SIZE":"LARGE","TLE_LINE1":"1 48394U 21038AT  22036.49269054  .00002203  00000-0  16679-3 0  9993","APOAPSIS":"548.647","SEMIMAJOR_AXIS":"6925.352","ARG_OF_PERICENTER":"78.6453","OBJECT_NAME":"STARLINK-2573","TLE_LINE2":"2 48394  53.0538 204.8336 0002066  78.6453 281.4768 15.06398983 43462","ECCENTRICITY":"0.00020660","EPHEMERIS_TYPE":"0","PERIOD":"95.592","SITE":"AFETR","CENTER_NAME":"EARTH"},{"CENTER_NAME":"EARTH","SITE":"AFETR","PERIOD":"95.592","EPHEMERIS_TYPE":"0","TLE_LINE2":"2 48395  53.0535 204.6057 0002049  76.2315 283.8902 15.06407339 43473","ECCENTRICITY":"0.00020490","OBJECT_NAME":"STARLINK-2574","APOAPSIS":"548.610","SEMIMAJOR_AXIS":"6925.326","ARG_OF_PERICENTER":"76.2315","TLE_LINE1":"1 48395U 21038AU  22036.54334756  .00001416  00000-0  11395-3 0  9997","RCS_SIZE":"LARGE","REV_AT_EPOCH":"4347","COUNTRY_CODE":"US","MEAN_MOTION_DDOT":"0.0000000000000","REF_FRAME":"TEME","RA_OF_ASC_NODE":"204.6057","MEAN_ANOMALY":"283.8902","TIME_SYSTEM":"UTC","LAUNCH_DATE":"2021-05-04","MEAN_MOTION_DOT":"0.00001416","NORAD_CAT_ID":"48395","FILE":"3292709","INCLINATION":"53.0535","CLASSIFICATION_TYPE":"U","MEAN_ELEMENT_THEORY":"SGP4","BSTAR":"0.00011395000000","GP_ID":"195367933","EPOCH":"2022-02-05T13:02:25.229184","ELEMENT_SET_NO":"999","PERIAPSIS":"545.772","MEAN_MOTION":"15.06407339","OBJECT_ID":"2021-038AU","OBJECT_TYPE":"PAYLOAD","DECAY_DATE":null},{"OBJECT_NAME":"STARLINK-2575","APOAPSIS":"548.465","ARG_OF_PERICENTER":"71.2194","SEMIMAJOR_AXIS":"6925.357","SITE":"AFETR","CENTER_NAME":"EARTH","PERIOD":"95.592","EPHEMERIS_TYPE":"0","TLE_LINE2":"2 48396  53.0560 204.5567 0001795  71.2194 288.8990 15.06397249 43474","ECCENTRICITY":"0.00017950","MEAN_MOTION_DDOT":"0.0000000000000","REF_FRAME":"TEME","RA_OF_ASC_NODE":"204.5567","MEAN_ANOMALY":"288.8990","TIME_SYSTEM":"UTC","TLE_LINE1":"1 48396U 21038AV  22036.55534982  .00000775  00000-0  70963-4 0  9996","RCS_SIZE":"LARGE","REV_AT_EPOCH":"4347","COUNTRY_CODE":"US","CLASSIFICATION_TYPE":"U","MEAN_ELEMENT_THEORY":"SGP4","BSTAR":"0.00007096300000","GP_ID":"195368183","EPOCH":"2022-02-05T13:19:42.224448","LAUNCH_DATE":"2021-05-04","MEAN_MOTION_DOT":"0.00000775","NORAD_CAT_ID":"48396","INCLINATION":"53.0560","FILE":"3292709","OBJECT_ID":"2021-038AV","OBJECT_TYPE":"PAYLOAD","DECAY_DATE":null,"ELEMENT_SET_NO":"999","PERIAPSIS":"545.979","MEAN_MOTION":"15.06397249"},{"DECAY_DATE":null,"OBJECT_ID":"2021-038AW","OBJECT_TYPE":"PAYLOAD","PERIAPSIS":"546.094","MEAN_MOTION":"15.06401777","ELEMENT_SET_NO":"999","EPOCH":"2022-02-05T18:01:03.460800","GP_ID":"195375914","CLASSIFICATION_TYPE":"U","BSTAR":"0.00049862000000","MEAN_ELEMENT_THEORY":"SGP4","NORAD_CAT_ID":"48397","FILE":"3292865","INCLINATION":"53.0532","LAUNCH_DATE":"2021-05-04","MEAN_MOTION_DOT":"0.00007153","TIME_SYSTEM":"UTC","REF_FRAME":"TEME","MEAN_MOTION_DDOT":"0.0000000000000","MEAN_ANOMALY":"277.5332","RA_OF_ASC_NODE":"203.6871","REV_AT_EPOCH":"4286","COUNTRY_CODE":"US","TLE_LINE1":"1 48397U 21038AW  22036.75073450  .00007153  00000-0  49862-3 0  9997","RCS_SIZE":"LARGE","SEMIMAJOR_AXIS":"6925.343","ARG_OF_PERICENTER":"82.5840","APOAPSIS":"548.322","OBJECT_NAME":"STARLINK-2590","ECCENTRICITY":"0.00016090","TLE_LINE2":"2 48397  53.0532 203.6871 0001609  82.5840 277.5332 15.06401777 42868","SITE":"AFETR","CENTER_NAME":"EARTH","EPHEMERIS_TYPE":"0","PERIOD":"95.592"}];
